NUSAT-47                
1 66743U 25276CF  26196.13459285  .00003127  00000+0  14587-3 0  9999
2 66743  97.4183 269.3013 0000470 198.0052 162.1167 15.20584372 34671
NUSAT-53 (JANE GOODALL) 
1 68432U 26067S   26196.13582376  .00002879  00000+0  14144-3 0  9995
2 68432  97.4575 154.2563 0000633 346.2287  13.8930 15.18849080 16186
NUSAT-54 (BRANCA MARQU*)
1 68442U 26067AC  26196.12740829  .00002639  00000+0  13311-3 0  9993
2 68442  97.4558 154.0913 0003821   0.4387 359.6849 15.17995729 16177
