{"fetched_at":"2026-07-15T17:47:22.722Z","source":"https://celestrak.org/NORAD/elements/gp.php?NAME=NUSAT&FORMAT=JSON","constellation":"satellogic","records":[{"OBJECT_NAME":"NUSAT-47","OBJECT_ID":"2025-276CF","EPOCH":"2026-07-15T03:13:48.822240","CLASSIFICATION_TYPE":"U","MEAN_MOTION":15.20584372,"ECCENTRICITY":0.000047,"INCLINATION":97.4183,"RA_OF_ASC_NODE":269.3013,"ARG_OF_PERICENTER":198.0052,"MEAN_ANOMALY":162.1167,"EPHEMERIS_TYPE":0,"NORAD_CAT_ID":66743,"ELEMENT_SET_NO":999,"REV_AT_EPOCH":3467,"BSTAR":0.00014587,"MEAN_MOTION_DOT":0.00003127,"MEAN_MOTION_DDOT":0},{"OBJECT_NAME":"NUSAT-53 (JANE GOODALL)","OBJECT_ID":"2026-067S","EPOCH":"2026-07-15T03:15:35.172864","CLASSIFICATION_TYPE":"U","MEAN_MOTION":15.1884908,"ECCENTRICITY":0.0000633,"INCLINATION":97.4575,"RA_OF_ASC_NODE":154.2563,"ARG_OF_PERICENTER":346.2287,"MEAN_ANOMALY":13.893,"EPHEMERIS_TYPE":0,"NORAD_CAT_ID":68432,"ELEMENT_SET_NO":999,"REV_AT_EPOCH":1618,"BSTAR":0.00014144,"MEAN_MOTION_DOT":0.00002879,"MEAN_MOTION_DDOT":0},{"OBJECT_NAME":"NUSAT-54 (BRANCA MARQUES)","OBJECT_ID":"2026-067AC","EPOCH":"2026-07-15T03:03:28.076256","CLASSIFICATION_TYPE":"U","MEAN_MOTION":15.17995729,"ECCENTRICITY":0.0003821,"INCLINATION":97.4558,"RA_OF_ASC_NODE":154.0913,"ARG_OF_PERICENTER":0.4387,"MEAN_ANOMALY":359.6849,"EPHEMERIS_TYPE":0,"NORAD_CAT_ID":68442,"ELEMENT_SET_NO":999,"REV_AT_EPOCH":1617,"BSTAR":0.00013311,"MEAN_MOTION_DOT":0.00002639,"MEAN_MOTION_DDOT":0}]}
